
class WeatherData{
  static const List<Map<String, dynamic>> weatherList = [
    {
      "name":"VGHS",
      "isFavorite":false,
      "code": "dac",
      "time": "5/28/2025, 6:30:00 AM (EST)",
      "flightRules": "IFR",
      "temperature": "26°C / 78.8°F",
      "dewPoint": "24°C / 75.2°F",
      "visibility": "2800 sm",
      "wind": "090° at 13 kt",
      "clouds": "BKN010, BKN100",
      "rawMetar": "VGHS 290730Z 08013KT 3200 RA BKN010 BKN100 26/24 Q0993 NOSIG",
    },
    {
      "name":"KIND",
      "isFavorite":false,
      "code": "cox",
      "time": "5/28/2025, 6:30:00 AM (EST)",
      "flightRules": "IFR",
      "temperature": "26°C / 78.8°F",
      "dewPoint": "24°C / 75.2°F",
      "visibility": "2800 sm",
      "wind": "090° at 13 kt",
      "clouds": "BKN010, BKN100",
      "rawMetar": "VGHS 290730Z 08013KT 3200 RA BKN010 BKN100 26/24 Q0993 NOSIG",
    },
  ];
}


